[{"OBJECT_NAME":"STARLINK-30327","OBJECT_ID":"2023-129K","EPOCH":"2026-03-09T12:25:28.993152","MEAN_MOTION":15.26626807,"ECCENTRICITY":0.00230309,"INCLINATION":42.9974,"RA_OF_ASC_NODE":85.9834,"ARG_OF_PERICENTER":70.832,"MEAN_ANOMALY":289.5022,"EPHEMERIS_TYPE":0,"CLASSIFICATION_TYPE":"U","NORAD_CAT_ID":57707,"ELEMENT_SET_NO":999,"REV_AT_EPOCH":14090,"BSTAR":0.00029313824,"MEAN_MOTION_DOT":7.635e-5,"MEAN_MOTION_DDOT":0},{"OBJECT_NAME":"M-SEL\/CORTEZ","OBJECT_ID":"2025-052X","EPOCH":"2026-03-09T22:43:08.037984","MEAN_MOTION":15.2443435,"ECCENTRICITY":0.00063111,"INCLINATION":97.4031,"RA_OF_ASC_NODE":323.6247,"ARG_OF_PERICENTER":125.7323,"MEAN_ANOMALY":234.4503,"EPHEMERIS_TYPE":0,"CLASSIFICATION_TYPE":"U","NORAD_CAT_ID":63231,"ELEMENT_SET_NO":999,"REV_AT_EPOCH":5479,"BSTAR":0.00042924652,"MEAN_MOTION_DOT":0.00010472,"MEAN_MOTION_DDOT":0}]
